[{"OBJECT_NAME":"STARLINK-4496","OBJECT_ID":"2022-097AA","EPOCH":"2026-03-09T11:59:49.975872","MEAN_MOTION":15.08850041,"ECCENTRICITY":0.0001302,"INCLINATION":53.2157,"RA_OF_ASC_NODE":114.9695,"ARG_OF_PERICENTER":98.6369,"MEAN_ANOMALY":261.4771,"EPHEMERIS_TYPE":0,"CLASSIFICATION_TYPE":"U","NORAD_CAT_ID":53412,"ELEMENT_SET_NO":999,"REV_AT_EPOCH":19862,"BSTAR":0.00052533052,"MEAN_MOTION_DOT":8.085e-5,"MEAN_MOTION_DDOT":0},{"OBJECT_NAME":"METEOR 2-5 DEB","OBJECT_ID":"1979-095D","EPOCH":"2026-03-07T02:20:18.720096","MEAN_MOTION":15.07655153,"ECCENTRICITY":0.00106351,"INCLINATION":81.1653,"RA_OF_ASC_NODE":357.8549,"ARG_OF_PERICENTER":34.5561,"MEAN_ANOMALY":325.6353,"EPHEMERIS_TYPE":0,"CLASSIFICATION_TYPE":"U","NORAD_CAT_ID":28555,"ELEMENT_SET_NO":999,"REV_AT_EPOCH":23235,"BSTAR":0.011673296,"MEAN_MOTION_DOT":0.00182479,"MEAN_MOTION_DDOT":0}]
